{
  "type": "FeatureCollection",
  "features": [
    {
      "type": "Feature",
      "properties": {
        "norad_id": 43719,
        "name": "HYSIS",
        "group": "resource",
        "lat": -80.99126983398828,
        "lon": 162.51113512197801,
        "alt_km": 641.9883528050241,
        "timestamp": "2025-12-08T03:50:06.662597+00:00",
        "meta_object_name": "HYSIS",
        "meta_object_id": "2018-096A",
        "meta_epoch": "2025-12-07T05:31:22.259136",
        "meta_mean_motion": 14.78622733,
        "meta_eccentricity": 0.00015477,
        "meta_inclination": 98.0102,
        "meta_ra_of_asc_node": 44.2349,
        "meta_arg_of_pericenter": 63.2214,
        "meta_mean_anomaly": 296.9156,
        "meta_ephemeris_type": 0,
        "meta_classification_type": "U",
        "meta_norad_cat_id": 43719,
        "meta_element_set_no": 999,
        "meta_rev_at_epoch": 37905,
        "meta_bstar": 0.00034983319,
        "meta_mean_motion_dot": 2.51e-05,
        "meta_mean_motion_ddot": 0,
        "tle_line1": "1 43719U 18096A   25341.23011874  .00002510  00000+0  34983-3 0  9996",
        "tle_line2": "2 43719  98.0102  44.2349 0001547  63.2214 296.9156 14.78622733379052"
      },
      "geometry": {
        "type": "Point",
        "coordinates": [
          162.51113512197801,
          -80.99126983398828
        ]
      }
    },
    {
      "type": "Feature",
      "properties": {
        "norad_id": 43783,
        "name": "KAZSTSAT",
        "group": "resource",
        "lat": 18.365863323333638,
        "lon": -159.96665282479242,
        "alt_km": 573.6504547614468,
        "timestamp": "2025-12-08T03:50:06.662607+00:00",
        "meta_object_name": "KAZSTSAT",
        "meta_object_id": "2018-099AB",
        "meta_epoch": "2025-12-07T01:29:25.040832",
        "meta_mean_motion": 14.99325399,
        "meta_eccentricity": 0.00062491,
        "meta_inclination": 97.4553,
        "meta_ra_of_asc_node": 16.4911,
        "meta_arg_of_pericenter": 352.8314,
        "meta_mean_anomaly": 7.2819,
        "meta_ephemeris_type": 0,
        "meta_classification_type": "U",
        "meta_norad_cat_id": 43783,
        "meta_element_set_no": 999,
        "meta_rev_at_epoch": 38251,
        "meta_bstar": 0.0002576558,
        "meta_mean_motion_dot": 3.093e-05,
        "meta_mean_motion_ddot": 0,
        "tle_line1": "1 43783U 18099AB  25341.06209538  .00003093  00000+0  25766-3 0  9993",
        "tle_line2": "2 43783  97.4553  16.4911 0006249 352.8314   7.2819 14.99325399382519"
      },
      "geometry": {
        "type": "Point",
        "coordinates": [
          -159.96665282479242,
          18.365863323333638
        ]
      }
    },
    {
      "type": "Feature",
      "properties": {
        "norad_id": 43831,
        "name": "SAUDISAT 5A",
        "group": "resource",
        "lat": 37.813130454603915,
        "lon": -131.82258473242308,
        "alt_km": 481.3660033035758,
        "timestamp": "2025-12-08T03:50:06.662617+00:00",
        "meta_object_name": "SAUDISAT 5A",
        "meta_object_id": "2018-102A",
        "meta_epoch": "2025-12-07T06:45:08.754912",
        "meta_mean_motion": 15.25556096,
        "meta_eccentricity": 0.00118188,
        "meta_inclination": 97.3357,
        "meta_ra_of_asc_node": 41.5782,
        "meta_arg_of_pericenter": 92.8875,
        "meta_mean_anomaly": 267.3716,
        "meta_ephemeris_type": 0,
        "meta_classification_type": "U",
        "meta_norad_cat_id": 43831,
        "meta_element_set_no": 999,
        "meta_rev_at_epoch": 38639,
        "meta_bstar": 0.000374328,
        "meta_mean_motion_dot": 9.448e-05,
        "meta_mean_motion_ddot": 0,
        "tle_line1": "1 43831U 18102A   25341.28135133  .00009448  00000+0  37433-3 0  9999",
        "tle_line2": "2 43831  97.3357  41.5782 0011818  92.8875 267.3716 15.25556096386395"
      },
      "geometry": {
        "type": "Point",
        "coordinates": [
          -131.82258473242308,
          37.813130454603915
        ]
      }
    },
    {
      "type": "Feature",
      "properties": {
        "norad_id": 43833,
        "name": "SAUDISAT 5B",
        "group": "resource",
        "lat": -8.238039903209001,
        "lon": -135.90006927043967,
        "alt_km": 492.9766650642987,
        "timestamp": "2025-12-08T03:50:06.662627+00:00",
        "meta_object_name": "SAUDISAT 5B",
        "meta_object_id": "2018-102C",
        "meta_epoch": "2025-12-07T06:33:16.002432",
        "meta_mean_motion": 15.25911347,
        "meta_eccentricity": 0.00125155,
        "meta_inclination": 97.3452,
        "meta_ra_of_asc_node": 44.2989,
        "meta_arg_of_pericenter": 95.4171,
        "meta_mean_anomaly": 264.8495,
        "meta_ephemeris_type": 0,
        "meta_classification_type": "U",
        "meta_norad_cat_id": 43833,
        "meta_element_set_no": 999,
        "meta_rev_at_epoch": 38650,
        "meta_bstar": 0.00038147113,
        "meta_mean_motion_dot": 9.736e-05,
        "meta_mean_motion_ddot": 0,
        "tle_line1": "1 43833U 18102C   25341.27310188  .00009736  00000+0  38147-3 0  9998",
        "tle_line2": "2 43833  97.3452  44.2989 0012515  95.4171 264.8495 15.25911347386508"
      },
      "geometry": {
        "type": "Point",
        "coordinates": [
          -135.90006927043967,
          -8.238039903209001
        ]
      }
    },
    {
      "type": "Feature",
      "properties": {
        "norad_id": 44622,
        "name": "GAOFEN-10R",
        "group": "resource",
        "lat": 56.95658998309982,
        "lon": 122.17810434420433,
        "alt_km": 612.9958511009099,
        "timestamp": "2025-12-08T03:50:06.662637+00:00",
        "meta_object_name": "GAOFEN-10R",
        "meta_object_id": "2019-066A",
        "meta_epoch": "2025-12-07T06:13:57.349920",
        "meta_mean_motion": 14.82763392,
        "meta_eccentricity": 0.00081569,
        "meta_inclination": 98.0274,
        "meta_ra_of_asc_node": 288.7446,
        "meta_arg_of_pericenter": 57.0332,
        "meta_mean_anomaly": 303.1665,
        "meta_ephemeris_type": 0,
        "meta_classification_type": "U",
        "meta_norad_cat_id": 44622,
        "meta_element_set_no": 999,
        "meta_rev_at_epoch": 33393,
        "meta_bstar": 0.00040555509,
        "meta_mean_motion_dot": 3.225e-05,
        "meta_mean_motion_ddot": 0,
        "tle_line1": "1 44622U 19066A   25341.25969155  .00003225  00000+0  40556-3 0  9991",
        "tle_line2": "2 44622  98.0274 288.7446 0008156  57.0332 303.1665 14.82763392333939"
      },
      "geometry": {
        "type": "Point",
        "coordinates": [
          122.17810434420433,
          56.95658998309982
        ]
      }
    },
    {
      "type": "Feature",
      "properties": {
        "norad_id": 44804,
        "name": "CARTOSAT-3",
        "group": "resource",
        "lat": 43.8041164923173,
        "lon": 34.582414930884376,
        "alt_km": 499.00832707132486,
        "timestamp": "2025-12-08T03:50:06.662647+00:00",
        "meta_object_name": "CARTOSAT-3",
        "meta_object_id": "2019-081A",
        "meta_epoch": "2025-12-07T05:30:41.817888",
        "meta_mean_motion": 15.19301472,
        "meta_eccentricity": 0.00139635,
        "meta_inclination": 97.4589,
        "meta_ra_of_asc_node": 40.8825,
        "meta_arg_of_pericenter": 104.3505,
        "meta_mean_anomaly": 255.9281,
        "meta_ephemeris_type": 0,
        "meta_classification_type": "U",
        "meta_norad_cat_id": 44804,
        "meta_element_set_no": 999,
        "meta_rev_at_epoch": 33432,
        "meta_bstar": 0.00033942921,
        "meta_mean_motion_dot": 7.115e-05,
        "meta_mean_motion_ddot": 0,
        "tle_line1": "1 44804U 19081A   25341.22965067  .00007115  00000+0  33943-3 0  9999",
        "tle_line2": "2 44804  97.4589  40.8825 0013963 104.3505 255.9281 15.19301472334321"
      },
      "geometry": {
        "type": "Point",
        "coordinates": [
          34.582414930884376,
          43.8041164923173
        ]
      }
    },
    {
      "type": "Feature",
      "properties": {
        "norad_id": 44819,
        "name": "GAOFEN-12 01",
        "group": "resource",
        "lat": 63.01839661395932,
        "lon": -27.08408083063669,
        "alt_km": 621.9005781894875,
        "timestamp": "2025-12-08T03:50:06.662657+00:00",
        "meta_object_name": "GAOFEN-12 01",
        "meta_object_id": "2019-082A",
        "meta_epoch": "2025-12-07T06:27:43.172352",
        "meta_mean_motion": 14.80647694,
        "meta_eccentricity": 0.00011852,
        "meta_inclination": 97.8126,
        "meta_ra_of_asc_node": 347.6939,
        "meta_arg_of_pericenter": 270.7561,
        "meta_mean_anomaly": 89.3515,
        "meta_ephemeris_type": 0,
        "meta_classification_type": "U",
        "meta_norad_cat_id": 44819,
        "meta_element_set_no": 999,
        "meta_rev_at_epoch": 32569,
        "meta_bstar": 0.00013281991,
        "meta_mean_motion_dot": 9.69e-06,
        "meta_mean_motion_ddot": 0,
        "tle_line1": "1 44819U 19082A   25341.26924968  .00000969  00000+0  13282-3 0  9999",
        "tle_line2": "2 44819  97.8126 347.6939 0001185 270.7561  89.3515 14.80647694325690"
      },
      "geometry": {
        "type": "Point",
        "coordinates": [
          -27.08408083063669,
          63.01839661395932
        ]
      }
    }
  ]
}